     2.100          NAVIGATION                              RINEX VERSION / TYPE
fic2rin                                 09/20/2011 00:08:40 PGM / RUN BY / DATE
                                                            END OF HEADER
30 11  9 19 19 59 44.0  .832448713481D-04 -.477484718431D-11  .000000000000D+00
     .500000000000D+02 -.659062500000D+02  .453554606656D-08 -.150152166248D+01
    -.307522714138D-05  .117441521725D-01  .800751149654D-05  .515543848419D+04
     .158384000000D+06  .111758708954D-07  .108893203999D+01  .292435288429D-06
     .956544759312D+00  .223125000000D+03  .157654742496D+01 -.807497921244D-08
     .211794536378D-09  .100000000000D+01  .165400000000D+04  .000000000000D+00
     .240000000000D+01  .000000000000D+00 -.419095158577D-08  .500000000000D+02
     .155316000000D+06  .400000000000D+01
32 11  9 19 19 59 44.0 -.331568997353D-03 -.648014975013D-11  .000000000000D+00
     .400000000000D+01  .572812500000D+02  .455911847701D-08  .190248096044D+01
     .305101275444D-05  .121853111777D-01  .827014446259D-05  .515357297707D+04
     .158384000000D+06  .912696123123D-07 -.186442509082D+01  .163912773132D-06
     .953634855794D+00  .211343750000D+03 -.731965629146D+00 -.788354266691D-08
    -.380015829185D-09  .100000000000D+01  .165400000000D+04  .000000000000D+00
     .240000000000D+01  .000000000000D+00 -.279396772385D-08  .400000000000D+01
     .157236000000D+06  .400000000000D+01
 9 11  9 19 19 59 44.0  .106593593955D-03  .238742359215D-11  .000000000000D+00
     .400000000000D+01 -.385312500000D+02  .404766860164D-08  .479511702410D+00
    -.216625630856D-05  .172525405651D-01  .502914190292D-05  .515365972137D+04
     .158384000000D+06 -.193715095520D-06  .126152165830D+00 -.121071934700D-06
     .984220895997D+00  .296843750000D+03  .159951719033D+01 -.832213236450D-08
    -.113219001740D-09  .100000000000D+01  .165400000000D+04  .000000000000D+00
     .240000000000D+01  .000000000000D+00 -.558793544769D-08  .400000000000D+01
     .157326000000D+06  .400000000000D+01
 9 11  9 19 21 59 44.0  .106610357761D-03  .238742359215D-11  .000000000000D+00
     .500000000000D+01 -.366562500000D+02  .391373445132D-08  .152970621002D+01
    -.221282243729D-05  .172523916699D-01  .488944351673D-05  .515365934372D+04
     .165584000000D+06  .409781932831D-07  .126092298833D+00 -.473111867905D-06
     .984221822024D+00  .296781250000D+03  .159950904481D+01 -.797711799327D-08
    -.821462788651D-11  .100000000000D+01  .165400000000D+04  .000000000000D+00
     .240000000000D+01  .000000000000D+00 -.558793544769D-08  .500000000000D+01
     .158406000000D+06  .400000000000D+01
30 11  9 19 21 59 44.0  .832104124129D-04 -.477484718431D-11  .000000000000D+00
     .510000000000D+02 -.612187500000D+02  .450411618595D-08 -.452405920911D+00
    -.329688191414D-05  .117446546210D-01  .838004052639D-05  .515543924904D+04
     .165584000000D+06 -.141561031342D-06  .108887252556D+01  .931322574615D-07
     .956545793595D+00  .219687500000D+03  .157653513645D+01 -.825677249915D-08
     .258939357292D-09  .100000000000D+01  .165400000000D+04  .000000000000D+00
     .240000000000D+01  .000000000000D+00 -.419095158577D-08  .510000000000D+02
     .158406000000D+06  .400000000000D+01
32 11  9 19 21 59 44.0 -.331616029143D-03 -.648014975013D-11  .000000000000D+00
     .500000000000D+01  .621562500000D+02  .451947396852D-08  .295259214169D+01
     .323541462421D-05  .121843405068D-01  .915117561817D-05  .515357626534D+04
     .165584000000D+06 -.465661287308D-07 -.186448217096D+01  .208616256714D-06
     .953632327871D+00  .196687500000D+03 -.731835667893D+00 -.784104089654D-08
    -.304655547269D-09  .100000000000D+01  .165400000000D+04  .000000000000D+00
     .240000000000D+01  .000000000000D+00 -.279396772385D-08  .500000000000D+01
     .158406000000D+06  .400000000000D+01
 1 11  9 19 22  0  0.0 -.319210812449D-05 -.147792889038D-11  .000000000000D+00
     .650000000000D+02  .687500000000D+00  .482412951579D-08  .121734101443D+01
     .819563865662D-07  .299162347801D-03  .781565904617D-05  .515366333961D+04
     .165600000000D+06 -.540167093277D-07 -.300740058551D+01  .372529029846D-08
     .960662720098D+00  .229031250000D+03  .173942401916D+01 -.802640576059D-08
    -.960754304987D-10  .100000000000D+01  .165400000000D+04  .000000000000D+00
     .340000000000D+01  .630000000000D+02  .791624188423D-08  .650000000000D+02
     .158406000000D+06  .400000000000D+01
 2 11  9 19 22  0  0.0  .356902368367D-03  .181898940355D-11  .000000000000D+00
     .690000000000D+02 -.559375000000D+01  .523414659464D-08 -.257880029894D+01
    -.314787030220D-06  .105012559798D-01  .775605440140D-05  .515356966782D+04
     .165600000000D+06 -.189989805222D-06 -.301571186345D+01 -.240281224251D-06
     .939259628802D+00  .217531250000D+03 -.293131473700D+01 -.820819904729D-08
    -.176435920693D-09  .100000000000D+01  .165400000000D+04  .000000000000D+00
     .240000000000D+01  .000000000000D+00 -.172294676304D-07  .690000000000D+02
     .158406000000D+06  .400000000000D+01
 3 11  9 19 22  0  0.0  .770495273173D-03  .500222085975D-11  .000000000000D+00
     .540000000000D+02 -.302812500000D+02  .531772150445D-08 -.238849755296D+01
    -.176765024662D-05  .148144981358D-01  .726431608200D-05  .515367394638D+04
     .165600000000D+06  .253319740295D-06  .210786153200D+01 -.372529029846D-08
     .929390602038D+00  .216843750000D+03  .113546175140D+01 -.816141138411D-08
     .485377360772D-09  .100000000000D+01  .165400000000D+04  .000000000000D+00
     .240000000000D+01  .000000000000D+00 -.465661287308D-08  .540000000000D+02
     .158406000000D+06  .400000000000D+01
 4 11  9 19 22  0  0.0  .236234627664D-03  .112549969344D-10  .000000000000D+00
     .490000000000D+02 -.287500000000D+01  .539522473277D-08  .658665957864D+00
     .137835741043D-06  .979888159782D-02  .757724046707D-05  .515370334244D+04
     .165600000000D+06 -.204890966415D-07 -.299850608893D+01  .782310962677D-07
     .938338457083D+00  .221500000000D+03  .765692016112D+00 -.850964017496D-08
    -.262153776900D-09  .100000000000D+01  .165400000000D+04  .000000000000D+00
     .240000000000D+01  .000000000000D+00 -.651925802231D-08  .490000000000D+02
     .158406000000D+06  .400000000000D+01
 5 11  9 19 22  0  0.0 -.220540910959D-03 -.522959453519D-11  .000000000000D+00
     .890000000000D+02  .463437500000D+02  .463483591666D-08 -.513404538731D+00
     .232644379139D-05  .241877033841D-02  .844523310661D-05  .515375872231D+04
     .165600000000D+06  .745058059692D-07 -.195352415009D+01  .223517417908D-07
     .952957953358D+00  .214656250000D+03  .153197258172D+00 -.804819238237D-08
    -.291440711104D-09  .100000000000D+01  .165400000000D+04  .000000000000D+00
     .340000000000D+01  .000000000000D+00 -.102445483208D-07  .890000000000D+02
     .158406000000D+06  .400000000000D+01
 6 11  9 19 22  0  0.0 -.669085420668D-04  .886757334229D-11  .000000000000D+00
     .630000000000D+02 -.259687500000D+02  .530986403429D-08 -.404128566606D+00
    -.149011611938D-05  .667634501588D-02  .745989382267D-05  .515370226860D+04
     .165600000000D+06  .745058059692D-08  .218246231824D+01 -.968575477600D-07
     .936483238503D+00  .222750000000D+03 -.681690020908D+00 -.841892211047D-08
     .382515933324D-09  .100000000000D+01  .165400000000D+04  .000000000000D+00
     .340000000000D+01  .000000000000D+00 -.465661287308D-08  .630000000000D+02
     .158406000000D+06  .400000000000D+01
 7 11  9 19 22  0  0.0  .275792554021D-04  .181898940355D-11  .000000000000D+00
     .690000000000D+02 -.232187500000D+02  .413017203824D-08  .223050369508D+01
    -.120885670185D-05  .499409309123D-02  .477023422718D-05  .515363892174D+04
     .165600000000D+06 -.260770320892D-07  .153667728238D+00  .409781932831D-07
     .975356908582D+00  .295750000000D+03 -.307589300265D+01 -.800747640068D-08
    -.717887045734D-10  .100000000000D+01  .165400000000D+04  .000000000000D+00
     .240000000000D+01  .000000000000D+00 -.107102096081D-07  .690000000000D+02
     .158406000000D+06  .400000000000D+01
 8 11  9 19 22  0  0.0  .919029116631D-05  .113686837722D-12  .000000000000D+00
     .710000000000D+02 -.300000000000D+02  .361265048139D-08  .173785961991D+01
    -.146403908730D-05  .120861363830D-01  .533089041710D-05  .515375070000D+04
     .165600000000D+06 -.558793544769D-07  .231581817649D+00  .128522515297D-06
     .997199093276D+00  .297625000000D+03 -.303421133739D+01 -.775818030221D-08
    -.176435920693D-09  .100000000000D+01  .165400000000D+04  .000000000000D+00
     .240000000000D+01  .000000000000D+00 -.419095158577D-08  .710000000000D+02
     .158406000000D+06  .400000000000D+01
10 11  9 19 22  0  0.0 -.136783346534D-04 -.113686837722D-11  .000000000000D+00
     .950000000000D+02  .465937500000D+02  .491270463387D-08 -.266766040516D+00
     .244751572609D-05  .104403115110D-01  .817887485027D-05  .515363490677D+04
     .165600000000D+06  .130385160446D-07 -.193049696225D+01  .154599547386D-06
     .947871426695D+00  .212375000000D+03  .707523400150D+00 -.834534761723D-08
    -.304298389535D-09  .100000000000D+01  .165400000000D+04  .000000000000D+00
     .240000000000D+01  .000000000000D+00 -.232830643654D-08  .950000000000D+02
     .158406000000D+06  .400000000000D+01
11 11  9 19 22  0  0.0 -.187392812222D-03 -.341060513165D-11  .000000000000D+00
     .178000000000D+03 -.108125000000D+02  .642776774233D-08  .240129487797D+01
    -.707805156708D-06  .122995717684D-01  .701844692230D-05  .515366672134D+04
     .165600000000D+06 -.204890966415D-07  .302435242963D+01 -.240281224251D-06
     .888339852383D+00  .204875000000D+03  .970978353809D+00 -.868500462245D-08
     .357157734196D-12  .100000000000D+01  .165400000000D+04  .000000000000D+00
     .240000000000D+01  .000000000000D+00 -.116415321827D-07  .178000000000D+03
     .158406000000D+06  .400000000000D+01
